{"type": "FeatureCollection", "features": [ {"type": "Feature", "properties": {"norad_id": 41335, "name": "SENTINEL-3A", "group": "resource", "lat": 52.59584955325452, "lon": 38.795892588898404, "alt_km": 797.1547286287114, "timestamp": "2025-12-11T05:00:25.968365+00:00", "meta": {"OBJECT_NAME": "SENTINEL-3A", "OBJECT_ID": "2016-011A", "EPOCH": "2025-12-10T22:01:30.378144", "MEAN_MOTION": 14.26745453, "ECCENTRICITY": 9.49e-05, "INCLINATION": 98.6209, "RA_OF_ASC_NODE": 49.9524, "ARG_OF_PERICENTER": 93.7748, "MEAN_ANOMALY": 266.3541, "EPHEMERIS_TYPE": 0, "CLASSIFICATION_TYPE": "U", "NORAD_CAT_ID": 41335, "ELEMENT_SET_NO": 999, "REV_AT_EPOCH": 51121, "BSTAR": 0.00010565526, "MEAN_MOTION_DOT": 2.12e-06, "MEAN_MOTION_DDOT": 0}, "tle": {"line1": "1 41335U 16011A   25344.91771271  .00000212  00000+0  10566-3 0  9993", "line2": "2 41335  98.6209  49.9524 0000949  93.7748 266.3541 14.26745453511213"}}, "geometry": {"type": "Point", "coordinates": [38.795892588898404, 52.59584955325452]}}, {"type": "Feature", "properties": {"norad_id": 41556, "name": "ZIYUAN 3-2 (ZY 3-2)", "group": "resource", "lat": 3.757486000688301, "lon": 58.91119662248451, "alt_km": 506.75894452205284, "timestamp": "2025-12-11T05:00:25.968375+00:00", "meta": {"OBJECT_NAME": "ZIYUAN 3-2 (ZY 3-2)", "OBJECT_ID": "2016-033A", "EPOCH": "2025-12-10T22:40:36.590016", "MEAN_MOTION": 15.21459119, "ECCENTRICITY": 0.0012406, "INCLINATION": 97.4041, "RA_OF_ASC_NODE": 59.1411, "ARG_OF_PERICENTER": 255.9788, "MEAN_ANOMALY": 104.0069, "EPHEMERIS_TYPE": 0, "CLASSIFICATION_TYPE": "U", "NORAD_CAT_ID": 41556, "ELEMENT_SET_NO": 999, "REV_AT_EPOCH": 52936, "BSTAR": 0.00048983543, "MEAN_MOTION_DOT": 0.00010968, "MEAN_MOTION_DDOT": 0}, "tle": {"line1": "1 41556U 16033A   25344.94486794  .00010968  00000+0  48984-3 0  9992", "line2": "2 41556  97.4041  59.1411 0012406 255.9788 104.0069 15.21459119529369"}}, "geometry": {"type": "Point", "coordinates": [58.91119662248451, 3.757486000688301]}}, {"type": "Feature", "properties": {"norad_id": 41599, "name": "CARTOSAT-2C", "group": "resource", "lat": -39.99641954952236, "lon": 48.79994041725213, "alt_km": 517.1989109971437, "timestamp": "2025-12-11T05:00:25.968385+00:00", "meta": {"OBJECT_NAME": "CARTOSAT-2C", "OBJECT_ID": "2016-040A", "EPOCH": "2025-12-10T22:51:42.782400", "MEAN_MOTION": 15.19264816, "ECCENTRICITY": 0.00109842, "INCLINATION": 97.4767, "RA_OF_ASC_NODE": 42.2205, "ARG_OF_PERICENTER": 70.5002, "MEAN_ANOMALY": 289.7418, "EPHEMERIS_TYPE": 0, "CLASSIFICATION_TYPE": "U", "NORAD_CAT_ID": 41599, "ELEMENT_SET_NO": 999, "REV_AT_EPOCH": 52513, "BSTAR": 0.00032929211, "MEAN_MOTION_DOT": 6.886e-05, "MEAN_MOTION_DDOT": 0}, "tle": {"line1": "1 41599U 16040A   25344.95257850  .00006886  00000+0  32929-3 0  9993", "line2": "2 41599  97.4767  42.2205 0010984  70.5002 289.7418 15.19264816525139"}}, "geometry": {"type": "Point", "coordinates": [48.79994041725213, -39.99641954952236]}}, {"type": "Feature", "properties": {"norad_id": 41601, "name": "SKYSAT-C1", "group": "resource", "lat": -57.479839768559856, "lon": 33.39184769514096, "alt_km": 474.9872815417384, "timestamp": "2025-12-11T05:00:25.968396+00:00", "meta": {"OBJECT_NAME": "SKYSAT-C1", "OBJECT_ID": "2016-040C", "EPOCH": "2025-12-10T19:51:29.545920", "MEAN_MOTION": 15.32532246, "ECCENTRICITY": 0.00025906, "INCLINATION": 96.9828, "RA_OF_ASC_NODE": 21.9485, "ARG_OF_PERICENTER": 20.686, "MEAN_ANOMALY": 339.4488, "EPHEMERIS_TYPE": 0, "CLASSIFICATION_TYPE": "U", "NORAD_CAT_ID": 41601, "ELEMENT_SET_NO": 999, "REV_AT_EPOCH": 52898, "BSTAR": 0.00043396504, "MEAN_MOTION_DOT": 0.0001357, "MEAN_MOTION_DDOT": 0}, "tle": {"line1": "1 41601U 16040C   25344.82742530  .00013570  00000+0  43397-3 0  9996", "line2": "2 41601  96.9828  21.9485 0002590  20.6860 339.4488 15.32532246528987"}}, "geometry": {"type": "Point", "coordinates": [33.39184769514096, -57.479839768559856]}}, {"type": "Feature", "properties": {"norad_id": 41603, "name": "LAPAN-A3", "group": "resource", "lat": 82.71045489656238, "lon": -118.53733551411084, "alt_km": 466.2519943916004, "timestamp": "2025-12-11T05:00:25.968406+00:00", "meta": {"OBJECT_NAME": "LAPAN-A3", "OBJECT_ID": "2016-040E", "EPOCH": "2025-12-10T22:20:14.957088", "MEAN_MOTION": 15.31527622, "ECCENTRICITY": 0.00098553, "INCLINATION": 97.1433, "RA_OF_ASC_NODE": 342.5526, "ARG_OF_PERICENTER": 340.8763, "MEAN_ANOMALY": 19.2108, "EPHEMERIS_TYPE": 0, "CLASSIFICATION_TYPE": "U", "NORAD_CAT_ID": 41603, "ELEMENT_SET_NO": 999, "REV_AT_EPOCH": 52598, "BSTAR": 0.00019847632, "MEAN_MOTION_DOT": 5.976e-05, "MEAN_MOTION_DDOT": 0}, "tle": {"line1": "1 41603U 16040E   25344.93072867  .00005976  00000+0  19848-3 0  9994", "line2": "2 41603  97.1433 342.5526 0009855 340.8763  19.2108 15.31527622525982"}}, "geometry": {"type": "Point", "coordinates": [-118.53733551411084, 82.71045489656238]}}, {"type": "Feature", "properties": {"norad_id": 41604, "name": "BIROS", "group": "resource", "lat": -43.70509871268364, "lon": 23.39376294936337, "alt_km": 313.8707452182234, "timestamp": "2025-12-11T05:00:25.968417+00:00", "meta": {"OBJECT_NAME": "BIROS", "OBJECT_ID": "2016-040F", "EPOCH": "2025-12-10T20:07:25.800384", "MEAN_MOTION": 15.88850068, "ECCENTRICITY": 0.00032081, "INCLINATION": 97.0707, "RA_OF_ASC_NODE": 16.1953, "ARG_OF_PERICENTER": 157.011, "MEAN_ANOMALY": 203.1307, "EPHEMERIS_TYPE": 0, "CLASSIFICATION_TYPE": "U", "NORAD_CAT_ID": 41604, "ELEMENT_SET_NO": 999, "REV_AT_EPOCH": 52842, "BSTAR": 0.00078779058, "MEAN_MOTION_DOT": 0.00226741, "MEAN_MOTION_DDOT": 0}, "tle": {"line1": "1 41604U 16040F   25344.83849306  .00226741  00000+0  78779-3 0  9997", "line2": "2 41604  97.0707  16.1953 0003208 157.0110 203.1307 15.88850068528426"}}, "geometry": {"type": "Point", "coordinates": [23.39376294936337, -43.70509871268364]}}, {"type": "Feature", "properties": {"norad_id": 41727, "name": "GAOFEN-3", "group": "resource", "lat": -0.021521105436999904, "lon": -9.178962724377737, "alt_km": 753.6906486287235, "timestamp": "2025-12-11T05:00:25.968428+00:00", "meta": {"OBJECT_NAME": "GAOFEN-3", "OBJECT_ID": "2016-049A", "EPOCH": "2025-12-11T00:00:43.505856", "MEAN_MOTION": 14.42212153, "ECCENTRICITY": 0.00014415, "INCLINATION": 98.4041, "RA_OF_ASC_NODE": 350.6129, "ARG_OF_PERICENTER": 63.7888, "MEAN_ANOMALY": 296.345, "EPHEMERIS_TYPE": 0, "CLASSIFICATION_TYPE": "U", "NORAD_CAT_ID": 41727, "ELEMENT_SET_NO": 999, "REV_AT_EPOCH": 49152, "BSTAR": -1.4062498e-05, "MEAN_MOTION_DOT": -9e-07, "MEAN_MOTION_DDOT": 0}, "tle": {"line1": "1 41727U 16049A   25345.00050354 -.00000090  00000+0 -14062-4 0  9994", "line2": "2 41727  98.4041 350.6129 0001441  63.7888 296.3450 14.42212153491520"}}, "geometry": {"type": "Point", "coordinates": [-9.178962724377737, -0.021521105436999904]}}, {"type": "Feature", "properties": {"norad_id": 41771, "name": "SKYSAT-C4", "group": "resource", "lat": -4.176796343840117, "lon": -170.03922608100322, "alt_km": 442.8117356978855, "timestamp": "2025-12-11T05:00:25.968438+00:00", "meta": {"OBJECT_NAME": "SKYSAT-C4", "OBJECT_ID": "2016-058B", "EPOCH": "2025-12-10T12:38:19.389984", "MEAN_MOTION": 15.42146745, "ECCENTRICITY": 0.0001281, "INCLINATION": 96.9377, "RA_OF_ASC_NODE": 9.8214, "ARG_OF_PERICENTER": 134.2764, "MEAN_ANOMALY": 225.859, "EPHEMERIS_TYPE": 0, "CLASSIFICATION_TYPE": "U", "NORAD_CAT_ID": 41771, "ELEMENT_SET_NO": 999, "REV_AT_EPOCH": 51633, "BSTAR": 0.00049751, "MEAN_MOTION_DOT": 0.00021261, "MEAN_MOTION_DDOT": 0}, "tle": {"line1": "1 41771U 16058B   25344.52661331  .00021261  00000+0  49751-3 0  9995", "line2": "2 41771  96.9377   9.8214 0001281 134.2764 225.8590 15.42146745516334"}}, "geometry": {"type": "Point", "coordinates": [-170.03922608100322, -4.176796343840117]}}, {"type": "Feature", "properties": {"norad_id": 41772, "name": "SKYSAT-C5", "group": "resource", "lat": 42.03666134249382, "lon": -144.54897790743152, "alt_km": 454.9620409921963, "timestamp": "2025-12-11T05:00:25.968449+00:00", "meta": {"OBJECT_NAME": "SKYSAT-C5", "OBJECT_ID": "2016-058C", "EPOCH": "2025-12-10T20:35:21.800544", "MEAN_MOTION": 15.35309955, "ECCENTRICITY": 0.00024491, "INCLINATION": 97.0761, "RA_OF_ASC_NODE": 28.684, "ARG_OF_PERICENTER": 138.9206, "MEAN_ANOMALY": 221.2223, "EPHEMERIS_TYPE": 0, "CLASSIFICATION_TYPE": "U", "NORAD_CAT_ID": 41772, "ELEMENT_SET_NO": 999, "REV_AT_EPOCH": 51487, "BSTAR": 0.00044384128, "MEAN_MOTION_DOT": 0.00015157, "MEAN_MOTION_DDOT": 0}, "tle": {"line1": "1 41772U 16058C   25344.85789121  .00015157  00000+0  44384-3 0  9994", "line2": "2 41772  97.0761  28.6840 0002449 138.9206 221.2223 15.35309955514873"}}, "geometry": {"type": "Point", "coordinates": [-144.54897790743152, 42.03666134249382]}}, {"type": "Feature", "properties": {"norad_id": 41773, "name": "SKYSAT-C2", "group": "resource", "lat": 43.32152969154213, "lon": -163.51070804580877, "alt_km": 451.31453271368537, "timestamp": "2025-12-11T05:00:25.968459+00:00", "meta": {"OBJECT_NAME": "SKYSAT-C2", "OBJECT_ID": "2016-058D", "EPOCH": "2025-12-10T08:06:25.640064", "MEAN_MOTION": 15.37180734, "ECCENTRICITY": 0.0004477, "INCLINATION": 97.0364, "RA_OF_ASC_NODE": 8.9661, "ARG_OF_PERICENTER": 40.507, "MEAN_ANOMALY": 319.6508, "EPHEMERIS_TYPE": 0, "CLASSIFICATION_TYPE": "U", "NORAD_CAT_ID": 41773, "ELEMENT_SET_NO": 999, "REV_AT_EPOCH": 51599, "BSTAR": 0.0004509, "MEAN_MOTION_DOT": 0.00016358, "MEAN_MOTION_DDOT": 0}, "tle": {"line1": "1 41773U 16058D   25344.33779676  .00016358  00000+0  45090-3 0  9991", "line2": "2 41773  97.0364   8.9661 0004477  40.5070 319.6508 15.37180734515991"}}, "geometry": {"type": "Point", "coordinates": [-163.51070804580877, 43.32152969154213]}}]}